
# Worst residual: 36.25 km
# MJD 60556.000000 (2024 Sep  3  0:00)
A1175iz = A117b6y
1 79922U 24999ZZL 24247.49919926  .00000000  00000-0  00000-0 0 24436
2 79922 006.9200 197.5963 4172468 212.5752 222.9693 01.01117945    06

# Worst residual: 33.87 km
# MJD 60557.000000 (2024 Sep  4  0:00)
A1175iz = A117b6y
1 79922U 24999ZZL 24248.49919926  .00000000  00000-0  00000-0 0 24437
2 79922 006.9068 197.4923 4151434 212.5668 227.1556 01.01109250    04

# Worst residual: 36.30 km
# MJD 60558.000000 (2024 Sep  5  0:00)
A1175iz = A117b6y
1 79922U 24999ZZL 24249.49919926  .00000000  00000-0  00000-0 0 24438
2 79922 006.8940 197.3922 4130647 212.5488 231.3326 01.01100018    08

# Worst residual: 38.56 km
# MJD 60559.000000 (2024 Sep  6  0:00)
A1175iz = A117b6y
1 79922U 24999ZZL 24250.49919926  .00000000  00000-0  00000-0 0 24430
2 79922 006.8814 197.2952 4110058 212.5224 235.4980 01.01090429    07

# Worst residual: 37.06 km
# MJD 60560.000000 (2024 Sep  7  0:00)
A1175iz = A117b6y
1 79922U 24999ZZL 24251.49919926  .00000000  00000-0  00000-0 0 24431
2 79922 006.8679 197.1830 4089433 212.5071 239.6491 01.01082503    09

# Worst residual: 42.72 km
# MJD 60561.000000 (2024 Sep  8  0:00)
A1175iz = A117b6y
1 79922U 24999ZZL 24252.49919926  .00000000  00000-0  00000-0 0 24432
2 79922 006.8569 197.1059 4069293 212.4477 243.7898 01.01070733    00

# Worst residual: 44.63 km
# MJD 60562.000000 (2024 Sep  9  0:00)
A1175iz = A117b6y
1 79922U 24999ZZL 24253.49919926  .00000000  00000-0  00000-0 0 24433
2 79922 006.8452 197.0119 4049072 212.4004 247.9153 01.01060821    03

# Worst residual: 45.37 km
# MJD 60563.000000 (2024 Sep 10  0:00)
A1175iz = A117b6y
1 79922U 24999ZZL 24254.49919926  .00000000  00000-0  00000-0 0 24434
2 79922 006.8358 196.9428 4028643 212.3218 252.0272 01.01050799    08

# Worst residual: 45.12 km
# MJD 60564.000000 (2024 Sep 11  0:00)
A1175iz = A117b6y
1 79922U 24999ZZL 24255.49919926  .00000000  00000-0  00000-0 0 24435
2 79922 006.8217 196.8171 4009075 212.2950 256.1179 01.01042195    08

# Worst residual: 46.83 km
# MJD 60565.000000 (2024 Sep 12  0:00)
A1175iz = A117b6y
1 79922U 24999ZZL 24256.49919926  .00000000  00000-0  00000-0 0 24436
2 79922 006.8138 196.7272 3989016 212.2250 260.2015 01.01031845    00

# Worst residual: 49.71 km
# MJD 60566.000000 (2024 Sep 13  0:00)
A1175iz = A117b6y
1 79922U 24999ZZL 24257.49919926  .00000000  00000-0  00000-0 0 24437
2 79922 006.8038 196.6458 3969855 212.1394 264.2683 01.01021592    04

# Worst residual: 48.79 km
# MJD 60567.000000 (2024 Sep 14  0:00)
A1175iz = A117b6y
1 79922U 24999ZZL 24258.49919926  .00000000  00000-0  00000-0 0 24438
2 79922 006.7965 196.5486 3950214 212.0599 268.3218 01.01013442    01

# Worst residual: 50.62 km
# MJD 60568.000000 (2024 Sep 15  0:00)
A1175iz = A117b6y
1 79922U 24999ZZL 24259.49919926  .00000000  00000-0  00000-0 0 24439
2 79922 006.7928 196.4918 3931937 211.9405 272.3576 01.01005101    09

# Worst residual: 51.17 km
# MJD 60569.000000 (2024 Sep 16  0:00)
A1175iz = A117b6y
1 79922U 24999ZZL 24260.49919926  .00000000  00000-0  00000-0 0 24431
2 79922 006.7831 196.4106 3913080 211.8318 276.3811 01.00996199    03

# Worst residual: 51.20 km
# MJD 60570.000000 (2024 Sep 17  0:00)
A1175iz = A117b6y
1 79922U 24999ZZL 24261.49919926  .00000000  00000-0  00000-0 0 24432
2 79922 006.7762 196.3205 3894877 211.7327 280.3768 01.00985948    02
